NORAD_CAT_ID,OBJECT_NAME,OBJECT_TYPE,EPOCH,MEAN_MOTION,ECCENTRICITY,INCLINATION,RA_OF_ASC_NODE,ARG_OF_PERICENTER,MEAN_ANOMALY,BSTAR,MEAN_MOTION_DOT,MEAN_MOTION_DDOT,TLE_LINE0,TLE_LINE1,TLE_LINE2,SEMIMAJOR_AXIS,PERIOD,APOGEE,PERIGEE,DECAYED
52122.0,STARLINK-3726,PAYLOAD,2023-07-23 23:16:17,15.08851634,9.73e-05,53.217,67.4698,104.458,255.652,-0.00020531,-3.555e-05,0.0,0 STARLINK-3726,1 52122U 22029AL  23204.96964223 -.00003555  00000-0 -20531-3 0  9993,2 52122  53.2170  67.4698 0000973 104.4580 255.6520 15.08851634 75900,6917.845,95.437,540.383,539.037,0.0
52122.0,STARLINK-3726,PAYLOAD,2023-07-24 23:07:04,15.0883948,0.0001036,53.2172,63.0099,84.4851,275.6259,0.0002677,3.975e-05,0.0,0 STARLINK-3726,1 52122U 22029AL  23205.96324325  .00003975  00000-0  26770-3 0  9992,2 52122  53.2172  63.0099 0001036  84.4851 275.6259 15.08839480 76051,6917.882,95.438,540.464,539.03,0.0
52122.0,STARLINK-3726,PAYLOAD,2023-07-26 08:30:10,15.08836846,9.68e-05,53.2167,56.7656,106.8924,253.2174,7.5197e-05,9.09e-06,0.0,0 STARLINK-3726,1 52122U 22029AL  23207.35429392  .00000909  00000-0  75197-4 0  9999,2 52122  53.2167  56.7656 0000968 106.8924 253.2174 15.08836846 76260,6917.89,95.438,540.425,539.085,0.0
52122.0,STARLINK-3726,PAYLOAD,2023-07-26 16:27:06,15.08844572,0.000109,53.217,55.2791,98.5261,261.5854,2.6491e-05,1.34e-06,0.0,0 STARLINK-3726,1 52122U 22029AL  23207.68549131  .00000134  00000-0  26491-4 0  9992,2 52122  53.2170  55.2791 0001090  98.5261 261.5854 15.08844572 76314,6917.866,95.437,540.485,538.977,0.0
52122.0,STARLINK-3726,PAYLOAD,2023-07-26 22:48:38,15.08851498,0.0001192,53.2163,54.0897,94.0639,266.0489,0.0001036,1.362e-05,0.0,0 STARLINK-3726,1 52122U 22029AL  23207.95044399  .00001362  00000-0  10360-3 0  9999,2 52122  53.2163  54.0897 0001192  94.0639 266.0489 15.08851498 76356,6917.845,95.437,540.535,538.886,0.0
52122.0,STARLINK-3726,PAYLOAD,2023-07-27 08:20:57,15.08834105,0.0001104,53.2157,52.3061,95.7054,264.4064,2.622e-05,1.29e-06,0.0,0 STARLINK-3726,1 52122U 22029AL  23208.34789294  .00000129  00000-0  26220-4 0  9996,2 52122  53.2157  52.3061 0001104  95.7054 264.4064 15.08834105 76419,6917.898,95.438,540.527,539.0,0.0
52122.0,STARLINK-3726,PAYLOAD,2023-07-28 12:57:54,15.08837852,0.0001163,53.2166,46.9541,88.6128,271.4998,7.4742e-05,9.02e-06,0.0,0 STARLINK-3726,1 52122U 22029AL  23209.54021920  .00000902  00000-0  74742-4 0  9995,2 52122  53.2166  46.9541 0001163  88.6128 271.4998 15.08837852 76594,6917.887,95.438,540.557,538.947,0.0
52122.0,STARLINK-3726,PAYLOAD,2023-07-28 16:08:41,15.08837701,0.0001135,53.2166,46.3593,88.6891,271.4231,6.7245e-05,7.82e-06,0.0,0 STARLINK-3726,1 52122U 22029AL  23209.67269976  .00000782  00000-0  67245-4 0  9990,2 52122  53.2166  46.3593 0001135  88.6891 271.4231 15.08837701 76617,6917.887,95.438,540.538,538.967,0.0
52122.0,STARLINK-3726,PAYLOAD,2023-07-28 20:54:54,15.08663983,0.0002,53.2165,45.467,122.3653,237.7532,0.0026924,0.00042615,0.0,0 STARLINK-3726,1 52122U 22029AL  23209.87146421  .00042615  00000-0  26924-2 0  9999,2 52122  53.2165  45.4670 0002000 122.3653 237.7532 15.08663983 76647,6918.418,95.449,541.667,538.9,0.0
52122.0,STARLINK-3726,PAYLOAD,2023-07-29 19:10:13,15.08847026,9.77e-05,53.2169,41.3037,95.5973,264.5131,0.00024405,3.599e-05,0.0,0 STARLINK-3726,1 52122U 22029AL  23210.79877063  .00003599  00000-0  24405-3 0  9996,2 52122  53.2169  41.3037 0000977  95.5973 264.5131 15.08847026 76780,6917.859,95.437,540.4,539.048,0.0
52122.0,STARLINK-3726,PAYLOAD,2023-07-31 18:51:48,15.08839539,8.91e-05,53.2174,32.3825,86.4132,273.6962,-6.528e-05,-1.326e-05,0.0,0 STARLINK-3726,1 52122U 22029AL  23212.78597734 -.00001326  00000-0 -65280-4 0  9996,2 52122  53.2174  32.3825 0000891  86.4132 273.6962 15.08839539 77089,6917.882,95.438,540.363,539.13,0.0
52122.0,STARLINK-3726,PAYLOAD,2023-08-02 10:36:27,15.08833826,9.05e-05,53.2178,24.948,87.4133,272.6962,0.00012858,1.759e-05,0.0,0 STARLINK-3726,1 52122U 22029AL  23214.44198028  .00001759  00000-0  12858-3 0  9994,2 52122  53.2178  24.9480 0000905  87.4133 272.6962 15.08833826 77335,6917.899,95.438,540.39,539.138,0.0
52122.0,STARLINK-3726,PAYLOAD,2023-08-02 18:33:22,15.08844119,8.57e-05,53.2179,23.4617,86.7736,273.3354,0.00021299,3.104e-05,0.0,0 STARLINK-3726,1 52122U 22029AL  23214.77317391  .00003104  00000-0  21299-3 0  9991,2 52122  53.2179  23.4617 0000857  86.7736 273.3354 15.08844119 77384,6917.868,95.437,540.326,539.14,0.0
52122.0,STARLINK-3726,PAYLOAD,2023-08-03 18:24:09,15.08840933,8.42e-05,53.217,19.0011,85.278,274.8308,6.5855e-05,7.61e-06,0.0,0 STARLINK-3726,1 52122U 22029AL  23215.76677845  .00000761  00000-0  65855-4 0  9997,2 52122  53.2170  19.0011 0000842  85.2780 274.8308 15.08840933 77533,6917.878,95.437,540.325,539.16,0.0
52122.0,STARLINK-3726,PAYLOAD,2023-08-04 10:18:01,15.08833663,8.59e-05,53.2178,16.0273,85.3192,274.7899,2.6062e-06,-2.46e-06,0.0,0 STARLINK-3726,1 52122U 22029AL  23216.42918956 -.00000246  00000-0  26062-5 0  9999,2 52122  53.2178  16.0273 0000859  85.3192 274.7899 15.08833663 77631,6917.9,95.438,540.359,539.171,0.0
52122.0,STARLINK-3726,PAYLOAD,2023-08-04 18:14:57,15.08839846,8.8e-05,53.218,14.5409,81.7453,278.3639,5.264e-05,5.5e-06,0.0,0 STARLINK-3726,1 52122U 22029AL  23216.76038516  .00000550  00000-0  52640-4 0  9998,2 52122  53.2180  14.5409 0000880  81.7453 278.3639 15.08839846 77688,6917.881,95.438,540.355,539.137,0.0
52122.0,STARLINK-3726,PAYLOAD,2023-08-05 16:30:20,15.08859333,9.75e-05,53.2172,10.3786,68.9192,291.1904,0.00039793,6.054e-05,0.0,0 STARLINK-3726,1 52122U 22029AL  23217.68773429  .00006054  00000-0  39793-3 0  9997,2 52122  53.2172  10.3786 0000975  68.9192 291.1904 15.08859333 77820,6917.821,95.436,540.361,539.012,0.0
52122.0,STARLINK-3726,PAYLOAD,2023-08-06 09:59:35,15.08832805,9.88e-05,53.2179,7.1058,96.6053,263.5051,-6.4208e-05,-1.309e-05,0.0,0 STARLINK-3726,1 52122U 22029AL  23218.41638746 -.00001309  00000-0 -64208-4 0  9991,2 52122  53.2179   7.1058 0000988  96.6053 263.5051 15.08832805 77934,6917.902,95.438,540.451,539.084,0.0
52122.0,STARLINK-3726,PAYLOAD,2023-08-06 16:21:08,15.08825138,8.8e-05,53.218,5.9166,91.6231,268.4862,-0.00015587,-2.766e-05,0.0,0 STARLINK-3726,1 52122U 22029AL  23218.68135362 -.00002766  00000-0 -15587-3 0  9999,2 52122  53.2180   5.9166 0000880  91.6231 268.4862 15.08825138 77975,6917.926,95.438,540.4,539.182,0.0
52122.0,STARLINK-3726,PAYLOAD,2023-08-07 09:50:23,15.08832722,7.69e-05,53.2188,2.6442,111.8329,248.2745,-9.6121e-05,-1.817e-05,0.0,0 STARLINK-3726,1 52122U 22029AL  23219.40999615 -.00001817  00000-0 -96121-4 0  9999,2 52122  53.2188   2.6442 0000769 111.8329 248.2745 15.08832722 78089,6917.903,95.438,540.3,539.236,0.0
52122.0,STARLINK-3726,PAYLOAD,2023-08-07 16:11:56,15.08843008,7.71e-05,53.218,1.4572,95.2021,264.9059,0.00027591,4.106e-05,0.0,0 STARLINK-3726,1 52122U 22029AL  23219.67495577  .00004106  00000-0  27591-3 0  9992,2 52122  53.2180   1.4572 0000771  95.2021 264.9059 15.08843008 78126,6917.871,95.437,540.27,539.203,0.0
52122.0,STARLINK-3726,PAYLOAD,2023-08-08 16:02:42,15.08869181,7.59e-05,53.2176,356.997,91.7193,268.3886,0.00087729,0.00013713,0.0,0 STARLINK-3726,1 52122U 22029AL  23220.66855011  .00013713  00000-0  87729-3 0  9999,2 52122  53.2176 356.9970 0000759  91.7193 268.3886 15.08869181 78270,6917.791,95.436,540.181,539.131,0.0
52122.0,STARLINK-3726,PAYLOAD,2023-08-09 01:35:01,15.08850189,0.0001775,53.2177,355.2126,93.8259,266.2936,3.4252e-05,2.57e-06,0.0,0 STARLINK-3726,1 52122U 22029AL  23221.06599196  .00000257  00000-0  34252-4 0  9996,2 52122  53.2177 355.2126 0001775  93.8259 266.2936 15.08850189 78339,6917.849,95.437,540.942,538.486,0.0
52122.0,STARLINK-3726,PAYLOAD,2023-08-10 09:22:44,15.08839888,7.57e-05,53.2177,349.2667,116.4881,243.6189,5.263e-05,5.5e-06,0.0,0 STARLINK-3726,1 52122U 22029AL  23222.39078791  .00000550  00000-0  52630-4 0  9992,2 52122  53.2177 349.2667 0000757 116.4881 243.6189 15.08839888 78538,6917.881,95.438,540.269,539.222,0.0
52122.0,STARLINK-3726,PAYLOAD,2023-08-11 17:10:26,15.08845089,8.14e-05,53.218,343.3171,84.0882,276.0202,0.00015855,2.237e-05,0.0,0 STARLINK-3726,1 52122U 22029AL  23223.71558706  .00002237  00000-0  15855-3 0  9999,2 52122  53.2180 343.3171 0000814  84.0882 276.0202 15.08845089 78730,6917.865,95.437,540.293,539.167,0.0
52122.0,STARLINK-3726,PAYLOAD,2023-08-12 09:04:18,15.08838953,7.24e-05,53.2175,340.3462,81.1462,278.9612,8.1819e-05,1.015e-05,0.0,0 STARLINK-3726,1 52122U 22029AL  23224.37799071  .00001015  00000-0  81819-4 0  9991,2 52122  53.2175 340.3462 0000724  81.1462 278.9612 15.08838953 78835,6917.884,95.438,540.249,539.248,0.0
52122.0,STARLINK-3726,PAYLOAD,2023-08-13 13:41:14,15.08839916,7.79e-05,53.216,334.9936,94.8842,265.2239,5.1368e-05,5.3e-06,0.0,0 STARLINK-3726,1 52122U 22029AL  23225.57031093  .00000530  00000-0  51368-4 0  9994,2 52122  53.2160 334.9936 0000779  94.8842 265.2239 15.08839916 79012,6917.881,95.438,540.285,539.207,0.0
52122.0,STARLINK-3726,PAYLOAD,2023-08-14 10:21:16,15.08833261,8.46e-05,53.2168,331.1272,94.0507,266.0581,0.00024785,3.658e-05,0.0,0 STARLINK-3726,1 52122U 22029AL  23226.43143596  .00003658  00000-0  24785-3 0  9998,2 52122  53.2168 331.1272 0000846  94.0507 266.0581 15.08833261 79147,6917.901,95.438,540.351,539.181,0.0
52122.0,STARLINK-3726,PAYLOAD,2023-08-14 11:56:38,15.08840935,9.51e-05,53.2172,330.8305,83.1135,276.9966,8.4389e-05,1.056e-05,0.0,0 STARLINK-3726,1 52122U 22029AL  23226.49767179  .00001056  00000-0  84389-4 0  9990,2 52122  53.2172 330.8305 0000951  83.1135 276.9966 15.08840935 79152,6917.878,95.437,540.4,539.085,0.0
52122.0,STARLINK-3726,PAYLOAD,2023-08-16 10:02:48,15.08891107,0.0001128,53.2181,322.2067,67.1703,292.9408,-0.00072157,-0.00011769,0.0,0 STARLINK-3726,1 52122U 22029AL  23228.41861336 -.00011769  00000-0 -72157-3 0  9997,2 52122  53.2181 322.2067 0001128  67.1703 292.9408 15.08891107 79440,6917.724,95.434,540.369,538.809,0.0
